STARLINK-35507          
1 66327U 25253J   25321.83337963 -.01673254  00000+0 -91014-2 0  9992
2 66327  42.9961 131.8583 0001413 281.0615 301.8218 15.82128559  3022
STARLINK-35460          
1 66328U 25253K   25321.83337963 -.01795700  00000+0 -98006-2 0  9992
2 66328  42.9953 131.8037 0001509 274.7823 329.0754 15.81769119  3023
STARLINK-35505          
1 66329U 25253L   25321.83337963 -.01656430  00000+0 -89884-2 0  9993
2 66329  42.9961 131.8643 0001472 276.7513 303.9415 15.82144951  2928
STARLINK-35512          
1 66330U 25253M   25321.83337963 -.01756650  00000+0 -95324-2 0  9996
2 66330  42.9957 131.8316 0001483 274.1549 319.2063 15.81827891  2924
STARLINK-35257          
1 66331U 25253N   25321.83337963 -.01826743  00000+0 -10015-1 0  9991
2 66331  42.9956 131.7884 0001492 277.3899 332.8729 15.81725680  2659
STARLINK-35322          
1 66332U 25253P   25321.83337963 -.01778077  00000+0 -96821-2 0  9998
2 66332  42.9956 131.8147 0001586 274.4022 325.2744 15.81788247  2924
STARLINK-35400          
1 66333U 25253Q   25321.83337963 -.01825849  00000+0 -10002-1 0  9995
2 66333  42.9951 131.7928 0001523 273.0565 335.1430 15.81739439  2925
STARLINK-35407          
1 66334U 25253R   25321.83337963 -.01799926  00000+0 -98275-2 0  9991
2 66334  42.9960 131.8101 0001400 274.8175 327.0806 15.81769129  2926
STARLINK-35417          
1 66335U 25253S   25321.83337963 -.01855897  00000+0 -10246-1 0  9993
2 66335  42.9956 131.7660 0001498 273.4702 345.6098 15.81625064  2927
STARLINK-35404          
1 66336U 25253T   25321.83337963 -.01831138  00000+0 -10070-1 0  9991
2 66336  42.9955 131.7825 0001541 274.3262 338.3833 15.81665479  3022
STARLINK-34783          
1 66337U 25253U   25321.83337963 -.01871576  00000+0 -10388-1 0  9994
2 66337  42.9957 131.7596 0001519 275.6763 346.0870 15.81536999  2979
STARLINK-35477          
1 66338U 25253V   25321.83337963 -.01853365  00000+0 -10238-1 0  9995
2 66338  42.9954 131.7719 0001500 274.2882 342.9118 15.81607834  3025
