CCSDS_OMM_VERS = 2.0
CREATION_DATE  = 
ORIGINATOR     = 

OBJECT_NAME    = STARLINK-35507
OBJECT_ID      = 2025-253J
CENTER_NAME    = EARTH
REF_FRAME      = TEME
TIME_SYSTEM    = UTC
MEAN_ELEMENT_THEORY = SGP/SGP4

EPOCH          = 2025-11-17T20:00:04.000032
MEAN_MOTION    = 15.82128559
ECCENTRICITY   = .0001413
INCLINATION    = 42.9961
RA_OF_ASC_NODE = 131.8583
ARG_OF_PERICENTER = 281.0615
MEAN_ANOMALY   = 301.8218

EPHEMERIS_TYPE = 0
CLASSIFICATION_TYPE = U
NORAD_CAT_ID   = 66327
ELEMENT_SET_NO = 999
REV_AT_EPOCH   = 302
BSTAR          = -.91014E-2
MEAN_MOTION_DOT = -.1673254E-1
MEAN_MOTION_DDOT = 0

CCSDS_OMM_VERS = 2.0
CREATION_DATE  = 
ORIGINATOR     = 

OBJECT_NAME    = STARLINK-35460
OBJECT_ID      = 2025-253K
CENTER_NAME    = EARTH
REF_FRAME      = TEME
TIME_SYSTEM    = UTC
MEAN_ELEMENT_THEORY = SGP/SGP4

EPOCH          = 2025-11-17T20:00:04.000032
MEAN_MOTION    = 15.81769119
ECCENTRICITY   = .0001509
INCLINATION    = 42.9953
RA_OF_ASC_NODE = 131.8037
ARG_OF_PERICENTER = 274.7823
MEAN_ANOMALY   = 329.0754

EPHEMERIS_TYPE = 0
CLASSIFICATION_TYPE = U
NORAD_CAT_ID   = 66328
ELEMENT_SET_NO = 999
REV_AT_EPOCH   = 302
BSTAR          = -.98006E-2
MEAN_MOTION_DOT = -.17957E-1
MEAN_MOTION_DDOT = 0

CCSDS_OMM_VERS = 2.0
CREATION_DATE  = 
ORIGINATOR     = 

OBJECT_NAME    = STARLINK-35505
OBJECT_ID      = 2025-253L
CENTER_NAME    = EARTH
REF_FRAME      = TEME
TIME_SYSTEM    = UTC
MEAN_ELEMENT_THEORY = SGP/SGP4

EPOCH          = 2025-11-17T20:00:04.000032
MEAN_MOTION    = 15.82144951
ECCENTRICITY   = .0001472
INCLINATION    = 42.9961
RA_OF_ASC_NODE = 131.8643
ARG_OF_PERICENTER = 276.7513
MEAN_ANOMALY   = 303.9415

EPHEMERIS_TYPE = 0
CLASSIFICATION_TYPE = U
NORAD_CAT_ID   = 66329
ELEMENT_SET_NO = 999
REV_AT_EPOCH   = 292
BSTAR          = -.89884E-2
MEAN_MOTION_DOT = -.165643E-1
MEAN_MOTION_DDOT = 0

CCSDS_OMM_VERS = 2.0
CREATION_DATE  = 
ORIGINATOR     = 

OBJECT_NAME    = STARLINK-35512
OBJECT_ID      = 2025-253M
CENTER_NAME    = EARTH
REF_FRAME      = TEME
TIME_SYSTEM    = UTC
MEAN_ELEMENT_THEORY = SGP/SGP4

EPOCH          = 2025-11-17T20:00:04.000032
MEAN_MOTION    = 15.81827891
ECCENTRICITY   = .0001483
INCLINATION    = 42.9957
RA_OF_ASC_NODE = 131.8316
ARG_OF_PERICENTER = 274.1549
MEAN_ANOMALY   = 319.2063

EPHEMERIS_TYPE = 0
CLASSIFICATION_TYPE = U
NORAD_CAT_ID   = 66330
ELEMENT_SET_NO = 999
REV_AT_EPOCH   = 292
BSTAR          = -.95324E-2
MEAN_MOTION_DOT = -.175665E-1
MEAN_MOTION_DDOT = 0

CCSDS_OMM_VERS = 2.0
CREATION_DATE  = 
ORIGINATOR     = 

OBJECT_NAME    = STARLINK-35257
OBJECT_ID      = 2025-253N
CENTER_NAME    = EARTH
REF_FRAME      = TEME
TIME_SYSTEM    = UTC
MEAN_ELEMENT_THEORY = SGP/SGP4

EPOCH          = 2025-11-17T20:00:04.000032
MEAN_MOTION    = 15.81725680
ECCENTRICITY   = .0001492
INCLINATION    = 42.9956
RA_OF_ASC_NODE = 131.7884
ARG_OF_PERICENTER = 277.3899
MEAN_ANOMALY   = 332.8729

EPHEMERIS_TYPE = 0
CLASSIFICATION_TYPE = U
NORAD_CAT_ID   = 66331
ELEMENT_SET_NO = 999
REV_AT_EPOCH   = 265
BSTAR          = -.10015E-1
MEAN_MOTION_DOT = -.1826743E-1
MEAN_MOTION_DDOT = 0

CCSDS_OMM_VERS = 2.0
CREATION_DATE  = 
ORIGINATOR     = 

OBJECT_NAME    = STARLINK-35322
OBJECT_ID      = 2025-253P
CENTER_NAME    = EARTH
REF_FRAME      = TEME
TIME_SYSTEM    = UTC
MEAN_ELEMENT_THEORY = SGP/SGP4

EPOCH          = 2025-11-17T20:00:04.000032
MEAN_MOTION    = 15.81788247
ECCENTRICITY   = .0001586
INCLINATION    = 42.9956
RA_OF_ASC_NODE = 131.8147
ARG_OF_PERICENTER = 274.4022
MEAN_ANOMALY   = 325.2744

EPHEMERIS_TYPE = 0
CLASSIFICATION_TYPE = U
NORAD_CAT_ID   = 66332
ELEMENT_SET_NO = 999
REV_AT_EPOCH   = 292
BSTAR          = -.96821E-2
MEAN_MOTION_DOT = -.1778077E-1
MEAN_MOTION_DDOT = 0

CCSDS_OMM_VERS = 2.0
CREATION_DATE  = 
ORIGINATOR     = 

OBJECT_NAME    = STARLINK-35400
OBJECT_ID      = 2025-253Q
CENTER_NAME    = EARTH
REF_FRAME      = TEME
TIME_SYSTEM    = UTC
MEAN_ELEMENT_THEORY = SGP/SGP4

EPOCH          = 2025-11-17T20:00:04.000032
MEAN_MOTION    = 15.81739439
ECCENTRICITY   = .0001523
INCLINATION    = 42.9951
RA_OF_ASC_NODE = 131.7928
ARG_OF_PERICENTER = 273.0565
MEAN_ANOMALY   = 335.1430

EPHEMERIS_TYPE = 0
CLASSIFICATION_TYPE = U
NORAD_CAT_ID   = 66333
ELEMENT_SET_NO = 999
REV_AT_EPOCH   = 292
BSTAR          = -.10002E-1
MEAN_MOTION_DOT = -.1825849E-1
MEAN_MOTION_DDOT = 0

CCSDS_OMM_VERS = 2.0
CREATION_DATE  = 
ORIGINATOR     = 

OBJECT_NAME    = STARLINK-35407
OBJECT_ID      = 2025-253R
CENTER_NAME    = EARTH
REF_FRAME      = TEME
TIME_SYSTEM    = UTC
MEAN_ELEMENT_THEORY = SGP/SGP4

EPOCH          = 2025-11-17T20:00:04.000032
MEAN_MOTION    = 15.81769129
ECCENTRICITY   = .00014
INCLINATION    = 42.9960
RA_OF_ASC_NODE = 131.8101
ARG_OF_PERICENTER = 274.8175
MEAN_ANOMALY   = 327.0806

EPHEMERIS_TYPE = 0
CLASSIFICATION_TYPE = U
NORAD_CAT_ID   = 66334
ELEMENT_SET_NO = 999
REV_AT_EPOCH   = 292
BSTAR          = -.98275E-2
MEAN_MOTION_DOT = -.1799926E-1
MEAN_MOTION_DDOT = 0

CCSDS_OMM_VERS = 2.0
CREATION_DATE  = 
ORIGINATOR     = 

OBJECT_NAME    = STARLINK-35417
OBJECT_ID      = 2025-253S
CENTER_NAME    = EARTH
REF_FRAME      = TEME
TIME_SYSTEM    = UTC
MEAN_ELEMENT_THEORY = SGP/SGP4

EPOCH          = 2025-11-17T20:00:04.000032
MEAN_MOTION    = 15.81625064
ECCENTRICITY   = .0001498
INCLINATION    = 42.9956
RA_OF_ASC_NODE = 131.7660
ARG_OF_PERICENTER = 273.4702
MEAN_ANOMALY   = 345.6098

EPHEMERIS_TYPE = 0
CLASSIFICATION_TYPE = U
NORAD_CAT_ID   = 66335
ELEMENT_SET_NO = 999
REV_AT_EPOCH   = 292
BSTAR          = -.10246E-1
MEAN_MOTION_DOT = -.1855897E-1
MEAN_MOTION_DDOT = 0

CCSDS_OMM_VERS = 2.0
CREATION_DATE  = 
ORIGINATOR     = 

OBJECT_NAME    = STARLINK-35404
OBJECT_ID      = 2025-253T
CENTER_NAME    = EARTH
REF_FRAME      = TEME
TIME_SYSTEM    = UTC
MEAN_ELEMENT_THEORY = SGP/SGP4

EPOCH          = 2025-11-17T20:00:04.000032
MEAN_MOTION    = 15.81665479
ECCENTRICITY   = .0001541
INCLINATION    = 42.9955
RA_OF_ASC_NODE = 131.7825
ARG_OF_PERICENTER = 274.3262
MEAN_ANOMALY   = 338.3833

EPHEMERIS_TYPE = 0
CLASSIFICATION_TYPE = U
NORAD_CAT_ID   = 66336
ELEMENT_SET_NO = 999
REV_AT_EPOCH   = 302
BSTAR          = -.1007E-1
MEAN_MOTION_DOT = -.1831138E-1
MEAN_MOTION_DDOT = 0

CCSDS_OMM_VERS = 2.0
CREATION_DATE  = 
ORIGINATOR     = 

OBJECT_NAME    = STARLINK-34783
OBJECT_ID      = 2025-253U
CENTER_NAME    = EARTH
REF_FRAME      = TEME
TIME_SYSTEM    = UTC
MEAN_ELEMENT_THEORY = SGP/SGP4

EPOCH          = 2025-11-17T20:00:04.000032
MEAN_MOTION    = 15.81536999
ECCENTRICITY   = .0001519
INCLINATION    = 42.9957
RA_OF_ASC_NODE = 131.7596
ARG_OF_PERICENTER = 275.6763
MEAN_ANOMALY   = 346.0870

EPHEMERIS_TYPE = 0
CLASSIFICATION_TYPE = U
NORAD_CAT_ID   = 66337
ELEMENT_SET_NO = 999
REV_AT_EPOCH   = 297
BSTAR          = -.10388E-1
MEAN_MOTION_DOT = -.1871576E-1
MEAN_MOTION_DDOT = 0

CCSDS_OMM_VERS = 2.0
CREATION_DATE  = 
ORIGINATOR     = 

OBJECT_NAME    = STARLINK-35477
OBJECT_ID      = 2025-253V
CENTER_NAME    = EARTH
REF_FRAME      = TEME
TIME_SYSTEM    = UTC
MEAN_ELEMENT_THEORY = SGP/SGP4

EPOCH          = 2025-11-17T20:00:04.000032
MEAN_MOTION    = 15.81607834
ECCENTRICITY   = .00015
INCLINATION    = 42.9954
RA_OF_ASC_NODE = 131.7719
ARG_OF_PERICENTER = 274.2882
MEAN_ANOMALY   = 342.9118

EPHEMERIS_TYPE = 0
CLASSIFICATION_TYPE = U
NORAD_CAT_ID   = 66338
ELEMENT_SET_NO = 999
REV_AT_EPOCH   = 302
BSTAR          = -.10238E-1
MEAN_MOTION_DOT = -.1853365E-1
MEAN_MOTION_DDOT = 0

